ONEWEB-0300             
1 49089U 21075Q   24251.16428858  .00000522  00000+0  14150-2 0  9992
2 49089  87.8891 119.7336 0001333  74.7550 285.3726 13.12441688151199
ONEWEB-0301             
1 49090U 21075R   24251.14805202 -.00003115  00000+0 -86946-2 0  9999
2 49090  87.8893 119.7405 0001181  93.8204 266.3059 13.12453071150555
ONEWEB-0302             
1 49091U 21075S   24250.67766329 -.00000324  00000+0 -93724-3 0  9995
2 49091  87.8894 119.8331 0001934  81.4411 278.6937 13.12442900150487
ONEWEB-0304             
1 49092U 21075T   24251.20536717  .00000079  00000+0  17056-3 0  9991
2 49092  87.9155 134.9357 0002040  75.5889 284.5469 13.17651191149222
ONEWEB-0305             
1 49093U 21075U   24250.74167653  .00000042  00000+0  74494-4 0  9999
2 49093  87.9153 135.0126 0002082  66.5175 293.6175 13.17649791149184
ONEWEB-0308             
1 49094U 21075V   24251.12860708 -.00000279  00000+0 -81183-3 0  9990
2 49094  87.8890 119.7415 0001628  79.1009 281.0302 13.12443391150552
ONEWEB-0309             
1 49095U 21075W   24250.74652213  .00000066  00000+0  13594-3 0  9991
2 49095  87.9157 135.0189 0002204  86.9379 273.2005 13.17651508149171
ONEWEB-0310             
1 49096U 21075X   24250.68575948 -.00000078  00000+0 -25185-3 0  9998
2 49096  87.8902 119.8455 0001808  82.7287 277.4047 13.12445117151128
